IRIDIUM 7               
1 24793U 97020B   24238.73476153  .00000766  00000+0  26051-3 0  9993
2 24793  86.3953 300.7085 0002291  87.1621 272.9837 14.35375144429508
IRIDIUM 5               
1 24795U 97020D   24238.93940009  .00007340  00000+0  67908-3 0  9994
2 24795  86.3917 219.2185 0122701 113.9337 247.4797 14.88733603441441
IRIDIUM 4               
1 24796U 97020E   24238.90573575  .00000703  00000+0  23399-3 0  9994
2 24796  86.3943 297.7072 0002385  92.8878 267.2592 14.36302317430074
IRIDIUM 914             
1 24836U 97030A   24238.74915877  .00000933  00000+0  28900-3 0  9995
2 24836  86.3941 307.2574 0003899 103.2860 256.8774 14.40188456564592
IRIDIUM 16              
1 24841U 97030F   24238.75747832  .00001063  00000+0  34475-3 0  9995
2 24841  86.4075 329.4120 0001543  24.2261 335.9010 14.38081223424533
IRIDIUM 911             
1 24842U 97030G   24238.75221721  .00001379  00000+0  37525-3 0  9999
2 24842  86.4500 328.4788 0014392  11.5926 348.5605 14.46776642432353
IRIDIUM 17              
1 24870U 97034B   24238.84019570  .00001167  00000+0  38606-3 0  9997
2 24870  86.4010 358.9380 0000605 128.7581 231.3671 14.37173153421152
IRIDIUM 920             
1 24871U 97034C   24238.94707169  .00000979  00000+0  29905-3 0  9999
2 24871  86.4024 338.8206 0010744 346.4647  13.6262 14.40886974424054
